BEIDOU-2 IGSO-1 (C06)   
1 36828U 10036A   25078.72424668 -.00000107  00000+0  00000+0 0  9995
2 36828  54.2674 167.0736 0045689 211.0160 164.4095  1.00251312 53541
BEIDOU-2 G4 (C04)       
1 37210U 10057A   25081.85803413 -.00000108  00000+0  00000+0 0  9992
2 37210   2.5251  70.4332 0006453 207.7633  11.3019  1.00271648 52769
BEIDOU-2 IGSO-2 (C07)   
1 37256U 10068A   25081.33038353 -.00000156  00000+0  00000+0 0  9993
2 37256  48.3665 277.4109 0039244 211.5212 277.7446  1.00263413 52265
BEIDOU-2 IGSO-3 (C08)   
1 37384U 11013A   25081.21275450 -.00000155  00000+0  00000+0 0  9993
2 37384  61.7680  44.4379 0030479 183.4957 136.2268  1.00288302 51127
BEIDOU-2 IGSO-4 (C09)   
1 37763U 11038A   25080.70808647 -.00000056  00000+0  00000+0 0  9994
2 37763  54.5715 169.7206 0136877 229.6253 126.4456  1.00250919 50108
BEIDOU-2 IGSO-5 (C10)   
1 37948U 11073A   25081.90237404 -.00000099  00000+0  00000+0 0  9995
2 37948  48.5023 277.1054 0101288 219.5405 104.9496  1.00268494 48602
BEIDOU-2 G5 (C05)       
1 38091U 12008A   25081.87457720  .00000060  00000+0  00000+0 0  9992
2 38091   2.4470  71.2331 0012691 254.8791 228.1188  1.00275784 47849
BEIDOU-2 M3 (C11)       
1 38250U 12018A   25081.07323783 -.00000046  00000+0  00000+0 0  9998
2 38250  56.1337 320.0673 0021394 273.4183  86.3886  1.86233730 87527
BEIDOU-2 M4 (C12)       
1 38251U 12018B   25081.54160303 -.00000042  00000+0  00000+0 0  9994
2 38251  56.0375 319.3019 0012490 279.9240  79.9871  1.86232184 87531
BEIDOU-2 M6 (C14)       
1 38775U 12050B   25081.25150698  .00000028  00000+0  00000+0 0  9998
2 38775  56.1473  77.8834 0014391 336.2693  23.6846  1.86231072 84893
BEIDOU-2 G6 (C02)       
1 38953U 12059A   25081.84300382 -.00000172  00000+0  00000+0 0  9998
2 38953   3.2707  78.1278 0010474 303.9803 185.9939  1.00272834 45385
BEIDOU-3S IGSO-1S (C31) 
1 40549U 15019A   25081.07455645 -.00000122  00000+0  00000+0 0  9994
2 40549  50.0505 300.8890 0036927 191.8302 165.1820  1.00296487 36535
BEIDOU-3S M2S (C58)     
1 40748U 15037A   25081.20680489 -.00000042  00000+0  00000+0 0  9997
2 40748  55.2618 317.5587 0008705 270.1144  89.8366  1.86229137 65704
BEIDOU-3S M1S (C57)     
1 40749U 15037B   25081.47210249 -.00000040  00000+0  00000+0 0  9998
2 40749  55.2581 317.5425 0004442  15.0383 345.0259  1.86253820 65715
BEIDOU-2 IGSO-6 (C13)   
1 41434U 16021A   25081.84534959 -.00000127  00000+0  00000+0 0  9998
2 41434  59.5915  42.5433 0053301 230.1829 306.9089  1.00261024 32950
BEIDOU-2 G7 (C03)       
1 41586U 16037A   25081.84821664 -.00000350  00000+0  00000+0 0  9993
2 41586   1.5524  67.6653 0010377 335.1304 193.6138  1.00276997  2366
BEIDOU-3 M1 (C19)       
1 43001U 17069A   25081.55420697  .00000032  00000+0  00000+0 0  9998
2 43001  56.2964  78.0064 0012529 305.1334  54.7703  1.86231352 50197
BEIDOU-3 M2 (C20)       
1 43002U 17069B   25080.95503509  .00000026  00000+0  00000+0 0  9999
2 43002  56.2956  78.0617 0010044 324.5078  35.4452  1.86230930 50179
BEIDOU-3 M7 (C27)       
1 43107U 18003A   25080.16468340 -.00000051  00000+0  00000+0 0  9999
2 43107  54.7210 318.0636 0004781  65.1988 294.9004  1.86232522 48911
BEIDOU-3 M8 (C28)       
1 43108U 18003B   25081.18129991 -.00000044  00000+0  00000+0 0  9991
2 43108  54.7131 318.0124 0003004 285.5140  74.5031  1.86230968 48948
BEIDOU-3 M4 (C22)       
1 43207U 18018A   25081.62237012  .00000032  00000+0  00000+0 0  9996
2 43207  56.2552  78.0838 0007056 343.5107  16.4878  1.86231260 48339
BEIDOU-3 M3 (C21)       
1 43208U 18018B   25081.15193815  .00000028  00000+0  00000+0 0  9992
2 43208  56.2542  78.1034 0010108 314.4962  45.4415  1.86231356 48320
BEIDOU-3 M9 (C29)       
1 43245U 18029A   25081.37074225 -.00000038  00000+0  00000+0 0  9994
2 43245  54.5954 315.7027 0000952   3.8568 356.1940  1.86232734 47480
BEIDOU-3 M10 (C30)      
1 43246U 18029B   25081.30175359 -.00000039  00000+0  00000+0 0  9999
2 43246  54.5926 315.7316 0005020  17.8698 342.1979  1.86229049 47461
BEIDOU-2 IGSO-7 (C16)   
1 43539U 18057A   25081.23058204 -.00000141  00000+0  00000+0 0  9990
2 43539  55.1580 166.9777 0086410 235.2671 333.5762  1.00283600 24597
BEIDOU-3 M5 (C23)       
1 43581U 18062A   25080.99023249  .00000012  00000+0  00000+0 0  9992
2 43581  54.1065 197.6790 0002333 291.1200  68.8467  1.86228708 45212
BEIDOU-3 M6 (C24)       
1 43582U 18062B   25081.39161928  .00000009  00000+0  00000+0 0  9991
2 43582  54.1060 197.6546 0005469  37.2229 322.8059  1.86229469 45226
BEIDOU-3 M12 (C26)      
1 43602U 18067A   25081.32664476  .00000009  00000+0  00000+0 0  9998
2 43602  54.1983 196.3637 0007781  33.9456 326.0970  1.86227844 44709
BEIDOU-3 M11 (C25)      
1 43603U 18067B   25080.92349084  .00000011  00000+0  00000+0 0  9992
2 43603  54.1956 196.3418 0004371  26.5799 333.4361  1.86227255 44721
BEIDOU-3 M13 (C32)      
1 43622U 18072A   25081.42003994  .00000030  00000+0  00000+0 0  9993
2 43622  56.2278  77.6131 0009046 304.0902  55.8443  1.86231269 44242
BEIDOU-3 M14 (C33)      
1 43623U 18072B   25081.28552160  .00000028  00000+0  00000+0 0  9999
2 43623  56.2295  77.6110 0006653 324.0182  35.9571  1.86231227 44236
BEIDOU-3 M16 (C35)      
1 43647U 18078A   25080.90928096 -.00000042  00000+0  00000+0 0  9991
2 43647  54.4918 315.7935 0008238  23.8584 336.2293  1.86232364 43731
BEIDOU-3 M15 (C34)      
1 43648U 18078B   25081.03852130 -.00000041  00000+0  00000+0 0  9991
2 43648  54.4875 315.7909 0005247  32.8358 327.2464  1.86232231 43756
BEIDOU-3 G1 (C59)       
1 43683U 18085A   25081.85403764 -.00000274  00000+0  00000+0 0  9991
2 43683   2.8863 100.3759 0003001 352.8887 174.7659  1.00276061 23538
BEIDOU-3 M17 (C36)      
1 43706U 18093A   25081.19261156  .00000010  00000+0  00000+0 0  9997
2 43706  54.1896 197.6311 0007380 288.7122  71.1992  1.86228408 43129
BEIDOU-3 M18 (C37)      
1 43707U 18093B   25081.59265334  .00000008  00000+0  00000+0 0  9991
2 43707  54.1902 197.6093 0006030 327.2390  32.7143  1.86229858 43123
BEIDOU-3 IGSO-1 (C38)   
1 44204U 19023A   25081.21666422 -.00000191  00000+0  00000+0 0  9994
2 44204  58.0553  42.3214 0022037 227.4540 107.6882  1.00271601 21829
BEIDOU-2 G8 (C01)       
1 44231U 19027A   25081.85499332 -.00000243  00000+0  00000+0 0  9990
2 44231   1.4713  74.6377 0005589 254.0764 304.2173  1.00273142 21554
BEIDOU-3 IGSO-2 (C39)   
1 44337U 19035A   25076.63604451 -.00000120  00000+0  00000+0 0  9990
2 44337  55.1992 162.8713 0036533 202.1317 155.4770  1.00254723 21082
BEIDOU-3 M24 (C46)      
1 44542U 19061A   25081.66321662  .00000008  00000+0  00000+0 0  9990
2 44542  54.4170 197.9565 0007808  10.2063 349.7996  1.86228991 37383
BEIDOU-3 M23 (C45)      
1 44543U 19061B   25081.87247245  .00000007  00000+0  00000+0 0  9997
2 44543  54.4158 197.9182 0004505   0.9345  52.0509  1.86229261 37391
BEIDOU-3 IGSO-3 (C40)   
1 44709U 19073A   25080.96075852 -.00000139  00000+0  00000+0 0  9993
2 44709  55.5744 285.7650 0042278 181.5881 178.4168  1.00272048 19924
BEIDOU-3 M22 (C44)      
1 44793U 19078A   25080.96961066 -.00000041  00000+0  00000+0 0  9994
2 44793  54.3389 315.6894 0007195  30.5894 329.5019  1.86232097 36228
BEIDOU-3 M21 (C43)      
1 44794U 19078B   25080.56411094 -.00000044  00000+0  00000+0 0  9995
2 44794  54.3127 315.6738 0005233  25.5783 334.4965  1.86227816 36226
BEIDOU-3 M19 (C41)      
1 44864U 19090A   25081.61621676  .00000031  00000+0  00000+0 0  9998
2 44864  56.1617  77.7630 0020219 286.8766 251.6086  1.86231657 35826
BEIDOU-3 M20 (C42)      
1 44865U 19090B   25081.34578649  .00000029  00000+0  00000+0 0  9997
2 44865  56.1631  77.8057 0017855 298.4749 148.3787  1.86231602 35807
BEIDOU-3 G2 (C60)       
1 45344U 20017A   25081.70302846 -.00000136  00000+0  00000+0 0  9995
2 45344   2.7245  38.4364 0002977 321.2821 153.8451  1.00271053 18739
BEIDOU-3 G3 (C61)       
1 45807U 20040A   25081.77197819 -.00000349  00000+0  00000+0 0  9990
2 45807   1.3577  61.6382 0003637 328.4805 178.7012  1.00264851 17544
BEIDOU-3 G4 (C62)       
1 56564U 23066A   25081.65174062 -.00000109  00000+0  00000+0 0  9999
2 56564   1.4356 290.5547 0002169 203.7670  80.7006  1.00271148  6867
BEIDOU-3 M28 (C50)      
1 58654U 23207A   25081.18188224  .00000025  00000+0  00000+0 0  9997
2 58654  55.3492  77.5996 0004979 296.8492  63.1199  1.86232104  8420
BEIDOU-3 M26 (C48)      
1 58655U 23207B   25081.51849434  .00000028  00000+0  00000+0 0  9995
2 58655  55.3515  77.5741 0005637 282.6251  77.3327  1.86231592  8412
BEIDOU-3 M25 (C47)      
1 61186U 24168B   25081.89402220 -.00000039  00000+0  00000+0 0  9997
2 61186  54.8652 317.8781 0004314 309.6242  60.3362  1.86230181  3381
BEIDOU-3 M27 (C49)      
1 61187U 24168C   25081.29272779 -.00000043  00000+0  00000+0 0  9991
2 61187  54.8612 317.8836 0002870  12.3358  89.3448  1.86230395   841
